[{"OBJECT_NAME":"STARLINK-31064","OBJECT_ID":"2023-203P","EPOCH":"2026-03-09T01:51:56.804256","MEAN_MOTION":15.27563758,"ECCENTRICITY":0.00015041,"INCLINATION":43.0091,"RA_OF_ASC_NODE":74.3436,"ARG_OF_PERICENTER":279.6227,"MEAN_ANOMALY":80.4455,"EPHEMERIS_TYPE":0,"CLASSIFICATION_TYPE":"U","NORAD_CAT_ID":58631,"ELEMENT_SET_NO":999,"REV_AT_EPOCH":12459,"BSTAR":-6.1589938e-5,"MEAN_MOTION_DOT":-1.956e-5,"MEAN_MOTION_DDOT":0},{"OBJECT_NAME":"CZ-4B DEB","OBJECT_ID":"1999-057H","EPOCH":"2026-03-09T17:25:29.363520","MEAN_MOTION":15.25756771,"ECCENTRICITY":0.00339549,"INCLINATION":98.6728,"RA_OF_ASC_NODE":149.1557,"ARG_OF_PERICENTER":175.409,"MEAN_ANOMALY":184.7463,"EPHEMERIS_TYPE":0,"CLASSIFICATION_TYPE":"U","NORAD_CAT_ID":26121,"ELEMENT_SET_NO":999,"REV_AT_EPOCH":41150,"BSTAR":0.00075758105,"MEAN_MOTION_DOT":0.00019602,"MEAN_MOTION_DDOT":0}]
